start=new Date('2022-02-03T00:00:00.000Z').valueOf();
sats=[{"FILE":"3290513","TLE_LINE1":"1 44731U 19074U   22033.76279503  .00002891  00000-0  21289-3 0  9994","DECAY_DATE":null,"OBJECT_TYPE":"PAYLOAD","SEMIMAJOR_AXIS":"6925.339","INCLINATION":"53.0529","NORAD_CAT_ID":"44731","EPHEMERIS_TYPE":"0","RA_OF_ASC_NODE":"62.0882","REV_AT_EPOCH":"12327","MEAN_ELEMENT_THEORY":"SGP4","GP_ID":"195189924","SITE":"AFETR","PERIAPSIS":"546.186","TIME_SYSTEM":"UTC","EPOCH":"2022-02-02T18:18:25.490592","BSTAR":"0.00021289000000","MEAN_MOTION_DOT":"0.00002891","MEAN_ANOMALY":"290.9007","OBJECT_ID":"2019-074U","OBJECT_NAME":"STARLINK-1026","APOAPSIS":"548.222","ELEMENT_SET_NO":"999","PERIOD":"95.592","REF_FRAME":"TEME","CLASSIFICATION_TYPE":"U","RCS_SIZE":"LARGE","TLE_LINE2":"2 44731  53.0529  62.0882 0001470  69.2140 290.9007 15.06403125123274","ECCENTRICITY":"0.00014700","MEAN_MOTION":"15.06403125","COUNTRY_CODE":"US","MEAN_MOTION_DDOT":"0.0000000000000","CENTER_NAME":"EARTH","LAUNCH_DATE":"2019-11-11","ARG_OF_PERICENTER":"69.2140"},{"MEAN_MOTION_DDOT":"0.0000000000000","COUNTRY_CODE":"US","MEAN_MOTION":"15.06406124","ECCENTRICITY":"0.00015870","RCS_SIZE":"LARGE","TLE_LINE2":"2 44732  53.0541  81.8529 0001587  63.2796 296.8355 15.06406124123000","ARG_OF_PERICENTER":"63.2796","LAUNCH_DATE":"2019-11-11","CENTER_NAME":"EARTH","OBJECT_ID":"2019-074V","OBJECT_NAME":"STARLINK-1027","BSTAR":"0.00013217000000","MEAN_MOTION_DOT":"0.00001688","MEAN_ANOMALY":"296.8355","EPOCH":"2022-02-02T19:35:22.116480","TIME_SYSTEM":"UTC","PERIAPSIS":"546.096","SITE":"AFETR","CLASSIFICATION_TYPE":"U","REF_FRAME":"TEME","PERIOD":"95.592","ELEMENT_SET_NO":"999","APOAPSIS":"548.294","NORAD_CAT_ID":"44732","EPHEMERIS_TYPE":"0","GP_ID":"195190174","MEAN_ELEMENT_THEORY":"SGP4","REV_AT_EPOCH":"12300","RA_OF_ASC_NODE":"81.8529","DECAY_DATE":null,"TLE_LINE1":"1 44732U 19074V   22033.81622820  .00001688  00000-0  13217-3 0  9990","FILE":"3290513","INCLINATION":"53.0541","SEMIMAJOR_AXIS":"6925.330","OBJECT_TYPE":"PAYLOAD"},{"NORAD_CAT_ID":"44733","EPHEMERIS_TYPE":"0","GP_ID":"195160485","MEAN_ELEMENT_THEORY":"SGP4","REV_AT_EPOCH":"12323","RA_OF_ASC_NODE":"63.3617","DECAY_DATE":null,"TLE_LINE1":"1 44733U 19074W   22033.48266216 -.00001869  00000-0 -10665-3 0  9994","FILE":"3290262","SEMIMAJOR_AXIS":"6925.386","INCLINATION":"53.0549","OBJECT_TYPE":"PAYLOAD","MEAN_MOTION_DDOT":"0.0000000000000","COUNTRY_CODE":"US","MEAN_MOTION":"15.06387790","ECCENTRICITY":"0.00017850","RCS_SIZE":"LARGE","TLE_LINE2":"2 44733  53.0549  63.3617 0001785  63.9116 296.2056 15.06387790123239","ARG_OF_PERICENTER":"63.9116","LAUNCH_DATE":"2019-11-11","CENTER_NAME":"EARTH","OBJECT_ID":"2019-074W","OBJECT_NAME":"STARLINK-1028","BSTAR":"-0.00010665000000","MEAN_MOTION_DOT":"-0.00001869","MEAN_ANOMALY":"296.2056","TIME_SYSTEM":"UTC","EPOCH":"2022-02-02T11:35:02.010624","PERIAPSIS":"546.015","SITE":"AFETR","CLASSIFICATION_TYPE":"U","REF_FRAME":"TEME","PERIOD":"95.593","ELEMENT_SET_NO":"999","APOAPSIS":"548.487"},{"MEAN_ELEMENT_THEORY":"SGP4","GP_ID":"195159233","RA_OF_ASC_NODE":"342.9815","REV_AT_EPOCH":"12434","NORAD_CAT_ID":"44734","EPHEMERIS_TYPE":"0","INCLINATION":"53.0570","SEMIMAJOR_AXIS":"6925.367","OBJECT_TYPE":"PAYLOAD","FILE":"3290262","DECAY_DATE":null,"TLE_LINE1":"1 44734U 19074X   22033.56375441  .00000024  00000-0  20533-4 0  9991","ARG_OF_PERICENTER":"65.8385","LAUNCH_DATE":"2019-11-11","CENTER_NAME":"EARTH","MEAN_MOTION":"15.06394140","ECCENTRICITY":"0.00016550","MEAN_MOTION_DDOT":"0.0000000000000","COUNTRY_CODE":"US","RCS_SIZE":"LARGE","TLE_LINE2":"2 44734  53.0570 342.9815 0001655  65.8385 294.2777 15.06394140124343","CLASSIFICATION_TYPE":"U","ELEMENT_SET_NO":"999","APOAPSIS":"548.378","REF_FRAME":"TEME","PERIOD":"95.593","TIME_SYSTEM":"UTC","EPOCH":"2022-02-02T13:31:48.381024","OBJECT_ID":"2019-074X","OBJECT_NAME":"STARLINK-1029","BSTAR":"0.00002053300000","MEAN_MOTION_DOT":"0.00000024","MEAN_ANOMALY":"294.2777","SITE":"AFETR","PERIAPSIS":"546.085"},{"TLE_LINE1":"1 44735U 19074Y   22033.82358683  .00003025  00000-0  22175-3 0  9997","DECAY_DATE":null,"FILE":"3290513","OBJECT_TYPE":"PAYLOAD","INCLINATION":"53.0524","SEMIMAJOR_AXIS":"6925.264","EPHEMERIS_TYPE":"0","NORAD_CAT_ID":"44735","REV_AT_EPOCH":"12300","RA_OF_ASC_NODE":"81.8233","GP_ID":"195189425","MEAN_ELEMENT_THEORY":"SGP4","PERIAPSIS":"546.174","SITE":"AFETR","MEAN_MOTION_DOT":"0.00003025","MEAN_ANOMALY":"302.7617","BSTAR":"0.00022175000000","OBJECT_ID":"2019-074Y","OBJECT_NAME":"STARLINK-1030","TIME_SYSTEM":"UTC","EPOCH":"2022-02-02T19:45:57.902112","PERIOD":"95.590","REF_FRAME":"TEME","APOAPSIS":"548.083","ELEMENT_SET_NO":"999","CLASSIFICATION_TYPE":"U","TLE_LINE2":"2 44735  53.0524  81.8233 0001378  57.3505 302.7617 15.06427750123002","RCS_SIZE":"LARGE","COUNTRY_CODE":"US","MEAN_MOTION_DDOT":"0.0000000000000","ECCENTRICITY":"0.00013780","MEAN_MOTION":"15.06427750","CENTER_NAME":"EARTH","LAUNCH_DATE":"2019-11-11","ARG_OF_PERICENTER":"57.3505"},{"CENTER_NAME":"EARTH","LAUNCH_DATE":"2019-11-11","ARG_OF_PERICENTER":"65.8994","RCS_SIZE":"LARGE","TLE_LINE2":"2 44736  53.0552  81.7639 0001542  65.8994 294.2156 15.06388315123019","COUNTRY_CODE":"US","MEAN_MOTION_DDOT":"0.0000000000000","ECCENTRICITY":"0.00015420","MEAN_MOTION":"15.06388315","PERIOD":"95.593","REF_FRAME":"TEME","APOAPSIS":"548.317","ELEMENT_SET_NO":"999","CLASSIFICATION_TYPE":"U","PERIAPSIS":"546.181","SITE":"AFETR","MEAN_MOTION_DOT":"0.00001653","BSTAR":"0.00012988000000","MEAN_ANOMALY":"294.2156","OBJECT_NAME":"STARLINK-1031","OBJECT_ID":"2019-074Z","TIME_SYSTEM":"UTC","EPOCH":"2022-02-02T20:07:14.332512","REV_AT_EPOCH":"12301","RA_OF_ASC_NODE":"81.7639","GP_ID":"195189675","MEAN_ELEMENT_THEORY":"SGP4","EPHEMERIS_TYPE":"0","NORAD_CAT_ID":"44736","OBJECT_TYPE":"PAYLOAD","INCLINATION":"53.0552","SEMIMAJOR_AXIS":"6925.384","TLE_LINE1":"1 44736U 19074Z   22033.83836033  .00001653  00000-0  12988-3 0  9995","DECAY_DATE":null,"FILE":"3290513"},{"CLASSIFICATION_TYPE":"U","REF_FRAME":"TEME","PERIOD":"95.592","ELEMENT_SET_NO":"999","APOAPSIS":"548.291","OBJECT_ID":"2019-074AA","OBJECT_NAME":"STARLINK-1032","MEAN_MOTION_DOT":"0.00000783","MEAN_ANOMALY":"310.3806","BSTAR":"0.00007144900000","EPOCH":"2022-02-02T15:36:32.383584","TIME_SYSTEM":"UTC","PERIAPSIS":"546.149","SITE":"AFETR","ARG_OF_PERICENTER":"49.7318","LAUNCH_DATE":"2019-11-11","CENTER_NAME":"EARTH","MEAN_MOTION_DDOT":"0.0000000000000","COUNTRY_CODE":"US","MEAN_MOTION":"15.06397946","ECCENTRICITY":"0.00015460","TLE_LINE2":"2 44737  53.0549  82.6089 0001546  49.7318 310.3806 15.06397946122987","RCS_SIZE":"LARGE","SEMIMAJOR_AXIS":"6925.355","INCLINATION":"53.0549","OBJECT_TYPE":"PAYLOAD","DECAY_DATE":null,"TLE_LINE1":"1 44737U 19074AA  22033.65037481  .00000783  00000-0  71449-4 0  9997","FILE":"3290513","GP_ID":"195190926","MEAN_ELEMENT_THEORY":"SGP4","REV_AT_EPOCH":"12298","RA_OF_ASC_NODE":"82.6089","EPHEMERIS_TYPE":"0","NORAD_CAT_ID":"44737"},{"NORAD_CAT_ID":"44738","EPHEMERIS_TYPE":"0","GP_ID":"195190677","MEAN_ELEMENT_THEORY":"SGP4","REV_AT_EPOCH":"12300","RA_OF_ASC_NODE":"81.7651","TLE_LINE1":"1 44738U 19074AB  22033.83467457 -.00001270  00000-0 -66393-4 0  9994","DECAY_DATE":null,"FILE":"3290513","SEMIMAJOR_AXIS":"6925.392","INCLINATION":"53.0552","OBJECT_TYPE":"PAYLOAD","COUNTRY_CODE":"US","MEAN_MOTION_DDOT":"0.0000000000000","ECCENTRICITY":"0.00014450","MEAN_MOTION":"15.06385706","TLE_LINE2":"2 44738  53.0552  81.7651 0001445  65.6398 294.4742 15.06385706123006","RCS_SIZE":"LARGE","LAUNCH_DATE":"2019-11-11","ARG_OF_PERICENTER":"65.6398","CENTER_NAME":"EARTH","MEAN_ANOMALY":"294.4742","MEAN_MOTION_DOT":"-0.00001270","BSTAR":"-0.00006639300000","OBJECT_ID":"2019-074AB","OBJECT_NAME":"STARLINK-1033","TIME_SYSTEM":"UTC","EPOCH":"2022-02-02T20:01:55.882848","PERIAPSIS":"546.257","SITE":"AFETR","CLASSIFICATION_TYPE":"U","PERIOD":"95.593","REF_FRAME":"TEME","APOAPSIS":"548.258","ELEMENT_SET_NO":"999"},{"TIME_SYSTEM":"UTC","EPOCH":"2022-02-02T19:40:21.778464","OBJECT_NAME":"STARLINK-1034","OBJECT_ID":"2019-074AC","MEAN_MOTION_DOT":"0.00012710","MEAN_ANOMALY":"274.7464","BSTAR":"0.00080465000000","SITE":"AFETR","PERIAPSIS":"537.550","CLASSIFICATION_TYPE":"U","ELEMENT_SET_NO":"999","APOAPSIS":"539.038","REF_FRAME":"TEME","PERIOD":"95.408","MEAN_MOTION":"15.09315052","ECCENTRICITY":"0.00010760","MEAN_MOTION_DDOT":"0.0000000000000","COUNTRY_CODE":"US","RCS_SIZE":"LARGE","TLE_LINE2":"2 44739  52.9983  77.2653 0001076  85.3648 274.7464 15.09315052123037","ARG_OF_PERICENTER":"85.3648","LAUNCH_DATE":"2019-11-11","CENTER_NAME":"EARTH","FILE":"3290513","DECAY_DATE":null,"TLE_LINE1":"1 44739U 19074AC  22033.81969651  .00012710  00000-0  80465-3 0  9990","SEMIMAJOR_AXIS":"6916.429","INCLINATION":"52.9983","OBJECT_TYPE":"PAYLOAD","EPHEMERIS_TYPE":"0","NORAD_CAT_ID":"44739","MEAN_ELEMENT_THEORY":"SGP4","GP_ID":"195189925","RA_OF_ASC_NODE":"77.2653","REV_AT_EPOCH":"12303"},{"CENTER_NAME":"EARTH","ARG_OF_PERICENTER":"56.8713","LAUNCH_DATE":"2019-11-11","RCS_SIZE":"LARGE","TLE_LINE2":"2 44740  53.0542  83.2113 0001394  56.8713 303.2409 15.06394846122962","MEAN_MOTION":"15.06394846","ECCENTRICITY":"0.00013940","MEAN_MOTION_DDOT":"0.0000000000000","COUNTRY_CODE":"US","ELEMENT_SET_NO":"999","APOAPSIS":"548.195","REF_FRAME":"TEME","PERIOD":"95.592","CLASSIFICATION_TYPE":"U","SITE":"AFETR","PERIAPSIS":"546.264","EPOCH":"2022-02-02T12:20:09.199104","TIME_SYSTEM":"UTC","OBJECT_NAME":"STARLINK-1035","OBJECT_ID":"2019-074AD","MEAN_ANOMALY":"303.2409","MEAN_MOTION_DOT":"0.00000867","BSTAR":"0.00007711000000","RA_OF_ASC_NODE":"83.2113","REV_AT_EPOCH":"12296","MEAN_ELEMENT_THEORY":"SGP4","GP_ID":"195160736","EPHEMERIS_TYPE":"0","NORAD_CAT_ID":"44740","OBJECT_TYPE":"PAYLOAD","INCLINATION":"53.0542","SEMIMAJOR_AXIS":"6925.364","FILE":"3290262","DECAY_DATE":null,"TLE_LINE1":"1 44740U 19074AD  22033.51399536  .00000867  00000-0  77110-4 0  9992"}];
